MEAN_MOTION;ECCENTRICITY;INCLINATION;RA_OF_ASC_NODE;ARG_OF_PERICENTER;MEAN_ANOMALY;BSTAR;MEAN_MOTION_DOT;MEAN_MOTION_DDOT;TYPE
2.00575548;0.0036781;54.5712;313.7143;4.2373;355.8477;0;-1.4E-7;0;Weather
2.00575445;0.00368;54.5708;313.6938;4.28;355.8063;0;-1.4E-7;0;Weather
2.00575384;0.0036809;54.5705;313.6734;4.2995;355.788;0;-1.5E-7;0;Weather
2.00575341;0.0036821;54.5698;313.6325;4.3421;355.7469;0;-1.8E-7;0;Weather
2.00575302;0.003683;54.5694;313.612;4.3857;355.7038;0;-2.1E-7;0;Weather
2.00575302;0.003683;54.5694;313.612;4.3857;355.7038;0;-2.1E-7;0;Weather
2.00575302;0.003683;54.5694;313.612;4.3857;355.7038;0;-2.1E-7;0;Weather
2.00575197;0.0036857;54.568;313.5302;4.4939;355.5931;0;-3.6E-7;0;Weather
2.00575161;0.0036872;54.5673;313.4892;4.5408;355.5429;0;-4.5E-7;0;Weather
2.00575161;0.0036872;54.5673;313.4892;4.5408;355.5429;0;-4.5E-7;0;Weather
2.00575113;0.0036884;54.5666;313.4483;4.5843;355.4955;0;-5.3E-7;0;Weather
2.0057513;0.0036897;54.5659;313.4073;4.6386;355.4376;0;-5.8E-7;0;Weather
2.0057508;0.0036899;54.5656;313.3869;4.674;355.4008;0;-6.0E-7;0;Weather
2.0057505;0.0036904;54.5656;313.3869;4.6895;355.3854;0;-6.0E-7;0;Weather
2.0057505;0.0036904;54.5656;313.3869;4.6895;355.3854;0;-6.0E-7;0;Weather
2.00574998;0.0036924;54.5646;313.3255;4.7706;355.3017;0;-5.9E-7;0;Weather
2.00574982;0.0036936;54.5639;313.2846;4.8224;355.25;0;-5.4E-7;0;Weather
2.00574982;0.0036936;54.5639;313.2846;4.8224;355.25;0;-5.4E-7;0;Weather
2.00574953;0.0036942;54.5636;313.2642;4.8246;355.2482;0;-5.1E-7;0;Weather
2.00574953;0.0036942;54.5636;313.2642;4.8246;355.2482;0;-5.1E-7;0;Weather
2.005749;0.003695;54.5629;313.2233;4.8738;355.2009;0;-4.5E-7;0;Weather
2.005749;0.003695;54.5629;313.2233;4.8738;355.2009;0;-4.5E-7;0;Weather
2.00574847;0.0036967;54.5619;313.1619;4.9478;355.1312;0;-3.6E-7;0;Weather
2.00574847;0.0036967;54.5619;313.1619;4.9478;355.1312;0;-3.6E-7;0;Weather
2.00574705;0.0036983;54.5607;313.0801;5.0385;355.0458;0;-2.8E-7;0;Weather
2.00574662;0.0036981;54.56;313.0392;5.0776;355.0083;0;-2.6E-7;0;Weather
2.00574662;0.0036981;54.56;313.0392;5.0776;355.0083;0;-2.6E-7;0;Weather
2.00574591;0.0036986;54.5593;312.9984;5.1313;354.9553;0;-2.5E-7;0;Weather
2.00574455;0.0036996;54.5584;312.9371;5.215;354.8704;0;-2.5E-7;0;Weather
2.00574363;0.0036996;54.5581;312.9166;5.2302;354.854;0;-2.5E-7;0;Weather
2.00574371;0.0037;54.5578;312.8962;5.2482;354.8347;0;-2.5E-7;0;Weather
2.00574295;0.0037003;54.5574;312.8758;5.2877;354.794;0;-2.4E-7;0;Weather
2.00574243;0.0037;54.5571;312.8554;5.3128;354.7673;0;-2.4E-7;0;Weather
2.00574273;0.0037;54.5571;312.8554;5.2936;354.7863;0;-2.4E-7;0;Weather
2.0057412;0.0037002;54.5561;312.7941;5.3627;354.7124;0;-2.2E-7;0;Weather
2.0057407;0.0037007;54.5555;312.7532;5.4101;354.6623;0;-2.0E-7;0;Weather
2.00573961;0.0037013;54.5548;312.7123;5.4467;354.624;0;-1.7E-7;0;Weather
2.0057391;0.0037015;54.5545;312.6919;5.4694;354.6009;0;-1.5E-7;0;Weather
2.00573886;0.0037017;54.5541;312.6715;5.4933;354.577;0;-1.4E-7;0;Weather
2.00573886;0.0037017;54.5541;312.6715;5.4933;354.577;0;-1.4E-7;0;Weather
2.00573701;0.0037028;54.5525;312.5693;5.6091;354.4643;0;-1.1E-7;0;Weather
2.00573701;0.0037028;54.5525;312.5693;5.6091;354.4643;0;-1.1E-7;0;Weather
2.00573565;0.0037035;54.5518;312.5284;5.6428;354.4317;0;-1.3E-7;0;Weather
2.00573545;0.0037033;54.5515;312.5079;5.675;354.3997;0;-1.6E-7;0;Weather
2.0057353;0.0037032;54.5512;312.4875;5.6842;354.3902;0;-1.9E-7;0;Weather
2.00573477;0.0037043;54.5505;312.4466;5.7141;354.3587;0;-2.7E-7;0;Weather
2.00573481;0.0037046;54.5501;312.4262;5.7224;354.349;0;-3.2E-7;0;Weather
2.00573481;0.0037046;54.5501;312.4262;5.7224;354.349;0;-3.2E-7;0;Weather
2.00573289;0.0037059;54.5488;312.3444;5.7882;354.2747;0;-5.0E-7;0;Weather
2.00573345;0.0037062;54.5481;312.3035;5.8165;354.2416;0;-5.7E-7;0;Weather
2.00573345;0.0037062;54.5481;312.3035;5.8165;354.2416;0;-5.7E-7;0;Weather
2.00573241;0.0037072;54.5464;312.2013;5.8979;354.153;0;-6.0E-7;0;Weather
2.00573241;0.0037072;54.5464;312.2013;5.8979;354.153;0;-6.0E-7;0;Weather
2.00573171;0.0037064;54.5461;312.1809;5.9127;354.1378;0;-5.8E-7;0;Weather
2.00573171;0.0037064;54.5461;312.1809;5.9127;354.1378;0;-5.8E-7;0;Weather
2.00573161;0.0037068;54.5454;312.14;5.944;354.107;0;-5.4E-7;0;Weather
2.00573175;0.0037066;54.5451;312.1196;5.9557;354.0959;0;-5.1E-7;0;Weather
2.00573175;0.0037066;54.5451;312.1196;5.9557;354.0959;0;-5.1E-7;0;Weather
2.00573106;0.0037069;54.5438;312.0379;6.0081;354.0479;0;-4.0E-7;0;Weather
2.00573081;0.0037068;54.5434;312.0175;6.0192;354.0381;0;-3.7E-7;0;Weather
2.00572942;0.0037066;54.5427;311.9766;6.0282;354.0311;0;-3.4E-7;0;Weather
2.00572935;0.0037066;54.542;311.9358;6.0512;354.0096;0;-3.3E-7;0;Weather
2.00572935;0.0037066;54.542;311.9358;6.0512;354.0096;0;-3.3E-7;0;Weather
2.00572794;0.0037069;54.5414;311.895;6.0886;353.9728;0;-3.3E-7;0;Weather
2.00572759;0.0037073;54.5403;311.8337;6.13;353.9301;0;-3.3E-7;0;Weather
2.00572759;0.0037073;54.5403;311.8337;6.13;353.9301;0;-3.3E-7;0;Weather
2.00572759;0.0037073;54.5403;311.8337;6.13;353.9301;0;-3.3E-7;0;Weather
2.0057254;0.0037063;54.539;311.7521;6.1687;353.8861;0;-3.4E-7;0;Weather
2.0057254;0.0037063;54.539;311.7521;6.1687;353.8861;0;-3.4E-7;0;Weather
2.0057254;0.0037063;54.539;311.7521;6.1687;353.8861;0;-3.4E-7;0;Weather
2.0057254;0.0037063;54.539;311.7521;6.1687;353.8861;0;-3.4E-7;0;Weather
2.00572289;0.0037063;54.5373;311.65;6.2311;353.8157;0;-3.0E-7;0;Weather
2.00572294;0.0037047;54.537;311.6296;6.2459;353.7998;0;-2.9E-7;0;Weather
2.00572294;0.0037047;54.537;311.6296;6.2459;353.7998;0;-2.9E-7;0;Weather
2.00572183;0.0037046;54.5363;311.5888;6.266;353.7782;0;-2.6E-7;0;Weather
2.00572183;0.0037046;54.5363;311.5888;6.266;353.7782;0;-2.6E-7;0;Weather
2.00572183;0.0037046;54.5363;311.5888;6.266;353.7782;0;-2.6E-7;0;Weather
2.00571965;0.0037051;54.5342;311.4663;6.3266;353.7201;0;-2.1E-7;0;Weather
2.00571965;0.0037051;54.5342;311.4663;6.3266;353.7201;0;-2.1E-7;0;Weather
2.00571885;0.0037053;54.5334;311.4254;6.3422;353.7059;0;-2.3E-7;0;Weather
2.00571798;0.0037052;54.5327;311.3846;6.3563;353.6924;0;-2.7E-7;0;Weather
2.00571799;0.0037055;54.5327;311.3846;6.3475;353.7012;0;-2.7E-7;0;Weather
2.00571799;0.0037055;54.5327;311.3846;6.3475;353.7012;0;-2.7E-7;0;Weather
2.00571799;0.0037055;54.5327;311.3846;6.3475;353.7012;0;-2.7E-7;0;Weather
2.00571709;0.0037047;54.5315;311.3233;6.3765;353.6703;0;-4.0E-7;0;Weather
2.00571685;0.0037047;54.5315;311.3233;6.3694;353.6773;0;-4.0E-7;0;Weather
2.00571676;0.0037048;54.5308;311.2825;6.3857;353.6578;0;-5.0E-7;0;Weather
2.00571676;0.0037048;54.5308;311.2825;6.3857;353.6578;0;-5.0E-7;0;Weather
2.00571566;0.003705;54.5293;311.2008;6.3845;353.6502;0;-6.8E-7;0;Weather
2.00571566;0.003705;54.5293;311.2008;6.3845;353.6502;0;-6.8E-7;0;Weather
2.00571486;0.0037023;54.5276;311.0988;6.4054;353.6216;0;-7.5E-7;0;Weather
2.00571486;0.0037023;54.5276;311.0988;6.4054;353.6216;0;-7.5E-7;0;Weather
2.00571448;0.0037054;54.5277;311.0988;6.4026;353.6244;0;-7.5E-7;0;Weather
2.00571448;0.0037054;54.5277;311.0988;6.4026;353.6244;0;-7.5E-7;0;Weather
2.00571389;0.0037057;54.5263;311.0172;6.4158;353.6119;0;-6.7E-7;0;Weather
2.00571367;0.0037042;54.5256;310.9764;6.4244;353.6056;0;-6.1E-7;0;Weather
2.00571367;0.0037042;54.5256;310.9764;6.4244;353.6056;0;-6.1E-7;0;Weather
2.00571367;0.0037034;54.5253;310.956;6.4098;353.6214;0;-5.9E-7;0;Weather
2.00571298;0.0037029;54.5242;310.8948;6.4208;353.615;0;-5.2E-7;0;Weather
2.00571298;0.0037029;54.5242;310.8948;6.4208;353.615;0;-5.2E-7;0;Weather
2.00571165;0.0037019;54.5228;310.8133;6.4173;353.6232;0;-4.9E-7;0;Weather
2.00571082;0.003702;54.5225;310.7929;6.4082;353.6328;0;-4.9E-7;0;Weather
2.0057104;0.0037014;54.5218;310.7521;6.4146;353.6268;0;-5.0E-7;0;Weather
2.0057104;0.0037014;54.5218;310.7521;6.4146;353.6268;0;-5.0E-7;0;Weather
2.00570867;0.0036997;54.5201;310.6501;6.4339;353.6042;0;-5.1E-7;0;Weather
2.00570867;0.0036997;54.5201;310.6501;6.4339;353.6042;0;-5.1E-7;0;Weather
2.0057083;0.0037;54.52;310.6501;6.4188;353.6191;0;-5.1E-7;0;Weather
2.0057074;0.0036999;54.5197;310.6297;6.4249;353.6119;0;-5.1E-7;0;Weather
2.0057074;0.0036999;54.5197;310.6297;6.4249;353.6119;0;-5.1E-7;0;Weather
2.00570656;0.0036995;54.5186;310.5685;6.4223;353.6106;0;-4.9E-7;0;Weather
2.00570656;0.0036995;54.5186;310.5685;6.4223;353.6106;0;-4.9E-7;0;Weather
2.00570612;0.0037003;54.5182;310.5481;6.4257;353.6063;0;-4.7E-7;0;Weather
2.00570449;0.0036989;54.5171;310.4869;6.4217;353.6084;0;-4.3E-7;0;Weather
2.00570422;0.0036978;54.5168;310.4665;6.4018;353.6281;0;-4.1E-7;0;Weather
2.00570309;0.0036986;54.5156;310.4053;6.4151;353.617;0;-3.7E-7;0;Weather
2.00570226;0.0036985;54.5149;310.3645;6.4144;353.6201;0;-3.5E-7;0;Weather
2.00570203;0.0036984;54.5141;310.3237;6.4108;353.6264;0;-3.6E-7;0;Weather
2.00570094;0.0036983;54.5133;310.2828;6.4047;353.6345;0;-3.9E-7;0;Weather
2.00570086;0.0036987;54.5133;310.2828;6.3882;353.6509;0;-3.9E-7;0;Weather
2.00570042;0.0036987;54.5126;310.242;6.3978;353.6421;0;-4.6E-7;0;Weather
2.00570042;0.0036987;54.5126;310.242;6.3978;353.6421;0;-4.6E-7;0;Weather
2.00569913;0.0036976;54.511;310.1604;6.3638;353.6725;0;-6.5E-7;0;Weather
2.00569889;0.003698;54.511;310.1604;6.3477;353.6885;0;-6.5E-7;0;Weather
2.00569885;0.0036985;54.5102;310.1196;6.353;353.6799;0;-7.5E-7;0;Weather
2.00569842;0.0036983;54.5098;310.0992;6.3204;353.7104;0;-7.9E-7;0;Weather
2.00569842;0.0036983;54.5098;310.0992;6.3204;353.7104;0;-7.9E-7;0;Weather
2.00569745;0.0036987;54.5087;310.0379;6.2938;353.7322;0;-8.7E-7;0;Weather
2.00569797;0.0036991;54.5083;310.0175;6.2879;353.7372;0;-8.8E-7;0;Weather
2.00569739;0.0036995;54.5079;309.9971;6.2834;353.7411;0;-8.8E-7;0;Weather
2.00569728;0.0036995;54.5072;309.9563;6.2874;353.7373;0;-8.6E-7;0;Weather
2.00569728;0.0036995;54.5072;309.9563;6.2874;353.7373;0;-8.6E-7;0;Weather
2.00569728;0.0036995;54.5072;309.9563;6.2874;353.7373;0;-8.6E-7;0;Weather
2.00569669;0.0036996;54.5064;309.9155;6.2577;353.7686;0;-8.2E-7;0;Weather
2.00569684;0.0036993;54.5056;309.8747;6.2456;353.7837;0;-7.6E-7;0;Weather
